[{"OBJECT_NAME":"STARLINK-30252","OBJECT_ID":"2023-119F","EPOCH":"2026-03-09T00:58:01.593408","MEAN_MOTION":15.26747761,"ECCENTRICITY":0.00012173,"INCLINATION":42.9989,"RA_OF_ASC_NODE":70.2401,"ARG_OF_PERICENTER":279.343,"MEAN_ANOMALY":80.7284,"EPHEMERIS_TYPE":0,"CLASSIFICATION_TYPE":"U","NORAD_CAT_ID":57607,"ELEMENT_SET_NO":999,"REV_AT_EPOCH":14316,"BSTAR":1.8088466e-5,"MEAN_MOTION_DOT":2.26e-6,"MEAN_MOTION_DDOT":0},{"OBJECT_NAME":"CZ-6A DEB","OBJECT_ID":"2024-140RH","EPOCH":"2026-03-09T12:32:13.567200","MEAN_MOTION":15.23024459,"ECCENTRICITY":0.01073082,"INCLINATION":88.6757,"RA_OF_ASC_NODE":253.1302,"ARG_OF_PERICENTER":74.0491,"MEAN_ANOMALY":287.2547,"EPHEMERIS_TYPE":0,"CLASSIFICATION_TYPE":"U","NORAD_CAT_ID":61163,"ELEMENT_SET_NO":999,"REV_AT_EPOCH":8457,"BSTAR":0.0019108924,"MEAN_MOTION_DOT":0.00053105,"MEAN_MOTION_DDOT":0}]
